STARLINK-1356
1 45564U 20025AK  26061.15871733  .00037962  00000+0  83267-3 0  9998
2 45564  53.0506 109.6771 0005778   2.7175 357.3861 15.43708823324389
